FLOCK 4Q-16             
1 58271U 23174R   26187.15231589  .00020693  00000+0  36875-3 0  9999
2 58271  97.3825 275.7109 0007030 102.9963 257.2074 15.50108973148515
FLOCK 4Q-11             
1 58273U 23174T   26187.19269362  .00024610  00000+0  43132-3 0  9992
2 58273  97.3859 276.3771 0006825  98.6311 261.5714 15.50547752148538
FLOCK 4Q-28             
1 58280U 23174AA  26186.82928861  .00033235  00000+0  47185-3 0  9990
2 58280  97.3877 278.6533 0005596  91.3703 268.8193 15.56342144148643
FLOCK 4Q-27             
1 58282U 23174AC  26187.15368795  .00035140  00000+0  49473-3 0  9992
2 58282  97.3805 278.4013 0004778  93.1555 267.0247 15.56563273148709
FLOCK 4Q-7              
1 58318U 23174BQ  26187.17405998  .00040692  00000+0  56518-3 0  9997
2 58318  97.3904 279.3242 0005400  76.0328 284.1527 15.56897513148702
FLOCK 4Q-2              
1 58320U 23174BS  26187.24185272  .00022474  00000+0  39448-3 0  9999
2 58320  97.3832 276.1442 0005623  78.5694 281.6189 15.50531669148552
FLOCK 4Q-9              
1 58322U 23174BU  26187.19685445  .00029008  00000+0  50007-3 0  9996
2 58322  97.3855 276.1997 0006482  80.0759 280.1224 15.50986847148532
FLOCK 4Q-4              
1 58327U 23174BZ  26187.20265107  .00025811  00000+0  46818-3 0  9995
2 58327  97.3816 275.3457 0006453  99.8922 260.3058 15.49563833148500
FLOCK 4Q-13             
1 58328U 23174CA  26187.20513510  .00025063  00000+0  40867-3 0  9997
2 58328  97.4002 278.5877 0006565  82.4576 277.7422 15.52577545148626
FLOCK 4BE-18            
1 60480U 24149N   26186.18441047  .00036138  00000+0  83196-3 0  9990
2 60480  97.3724 270.1106 0004150 177.8079 182.3188 15.42530557105080
FLOCK 4BE-7             
1 60481U 24149P   26187.18296985  .00025264  00000+0  60998-3 0  9994
2 60481  97.3750 270.4237 0003624 173.3587 186.7708 15.41170213105172
FLOCK 4BE-36            
1 60486U 24149U   26187.18351130  .00018018  00000+0  40573-3 0  9999
2 60486  97.3737 271.8469 0004062 177.8338 182.2928 15.43334079105285
FLOCK 4BE-25            
1 60487U 24149V   26187.20262570  .00014680  00000+0  37744-3 0  9999
2 60487  97.3789 270.4879 0003071 162.7370 197.3981 15.39369638105168
FLOCK 4BE-31            
1 60488U 24149W   26187.19657788  .00023101  00000+0  49287-3 0  9990
2 60488  97.3791 272.7741 0003093 174.3451 185.7833 15.44889414105317
FLOCK 4BE-20            
1 60489U 24149X   26187.17547057  .00015147  00000+0  39865-3 0  9998
2 60489  97.3688 269.2915 0004275 178.5288 181.5971 15.38638181105137
FLOCK 4BE-23            
1 60490U 24149Y   26187.17075810  .00015216  00000+0  40625-3 0  9996
2 60490  97.3774 269.6732 0003790 181.9285 178.1946 15.38197217105114
