{"fetched_at":"2026-07-06T18:35:16.154Z","source":"https://celestrak.org/NORAD/elements/gp.php?GROUP=planet&FORMAT=JSON","constellation":"superdove","records":[{"OBJECT_NAME":"FLOCK 4Q-16","OBJECT_ID":"2023-174R","EPOCH":"2026-07-06T03:39:20.092896","CLASSIFICATION_TYPE":"U","MEAN_MOTION":15.50108973,"ECCENTRICITY":0.00070305,"INCLINATION":97.3825,"RA_OF_ASC_NODE":275.7109,"ARG_OF_PERICENTER":102.9963,"MEAN_ANOMALY":257.2074,"EPHEMERIS_TYPE":0,"NORAD_CAT_ID":58271,"ELEMENT_SET_NO":999,"REV_AT_EPOCH":14851,"BSTAR":0.00036874751,"MEAN_MOTION_DOT":0.00020693,"MEAN_MOTION_DDOT":0},{"OBJECT_NAME":"FLOCK 4Q-11","OBJECT_ID":"2023-174T","EPOCH":"2026-07-06T04:37:28.728768","CLASSIFICATION_TYPE":"U","MEAN_MOTION":15.50547752,"ECCENTRICITY":0.00068258,"INCLINATION":97.3859,"RA_OF_ASC_NODE":276.3771,"ARG_OF_PERICENTER":98.6311,"MEAN_ANOMALY":261.5714,"EPHEMERIS_TYPE":0,"NORAD_CAT_ID":58273,"ELEMENT_SET_NO":999,"REV_AT_EPOCH":14853,"BSTAR":0.00043132384,"MEAN_MOTION_DOT":0.0002461,"MEAN_MOTION_DDOT":0},{"OBJECT_NAME":"FLOCK 4Q-28","OBJECT_ID":"2023-174AA","EPOCH":"2026-07-05T19:54:10.535904","CLASSIFICATION_TYPE":"U","MEAN_MOTION":15.56342144,"ECCENTRICITY":0.00055961,"INCLINATION":97.3877,"RA_OF_ASC_NODE":278.6533,"ARG_OF_PERICENTER":91.3703,"MEAN_ANOMALY":268.8193,"EPHEMERIS_TYPE":0,"NORAD_CAT_ID":58280,"ELEMENT_SET_NO":999,"REV_AT_EPOCH":14864,"BSTAR":0.0004718524,"MEAN_MOTION_DOT":0.00033235,"MEAN_MOTION_DDOT":0},{"OBJECT_NAME":"FLOCK 4Q-27","OBJECT_ID":"2023-174AC","EPOCH":"2026-07-06T03:41:18.638880","CLASSIFICATION_TYPE":"U","MEAN_MOTION":15.56563273,"ECCENTRICITY":0.00047782,"INCLINATION":97.3805,"RA_OF_ASC_NODE":278.4013,"ARG_OF_PERICENTER":93.1555,"MEAN_ANOMALY":267.0247,"EPHEMERIS_TYPE":0,"NORAD_CAT_ID":58282,"ELEMENT_SET_NO":999,"REV_AT_EPOCH":14870,"BSTAR":0.00049472768,"MEAN_MOTION_DOT":0.0003514,"MEAN_MOTION_DDOT":0},{"OBJECT_NAME":"FLOCK 4Q-7","OBJECT_ID":"2023-174BQ","EPOCH":"2026-07-06T04:10:38.782272","CLASSIFICATION_TYPE":"U","MEAN_MOTION":15.56897513,"ECCENTRICITY":0.00054005,"INCLINATION":97.3904,"RA_OF_ASC_NODE":279.3242,"ARG_OF_PERICENTER":76.0328,"MEAN_ANOMALY":284.1527,"EPHEMERIS_TYPE":0,"NORAD_CAT_ID":58318,"ELEMENT_SET_NO":999,"REV_AT_EPOCH":14870,"BSTAR":0.00056518248,"MEAN_MOTION_DOT":0.00040692,"MEAN_MOTION_DDOT":0},{"OBJECT_NAME":"FLOCK 4Q-2","OBJECT_ID":"2023-174BS","EPOCH":"2026-07-06T05:48:16.075008","CLASSIFICATION_TYPE":"U","MEAN_MOTION":15.50531669,"ECCENTRICITY":0.00056235,"INCLINATION":97.3832,"RA_OF_ASC_NODE":276.1442,"ARG_OF_PERICENTER":78.5694,"MEAN_ANOMALY":281.6189,"EPHEMERIS_TYPE":0,"NORAD_CAT_ID":58320,"ELEMENT_SET_NO":999,"REV_AT_EPOCH":14855,"BSTAR":0.00039447833,"MEAN_MOTION_DOT":0.00022474,"MEAN_MOTION_DDOT":0},{"OBJECT_NAME":"FLOCK 4Q-9","OBJECT_ID":"2023-174BU","EPOCH":"2026-07-06T04:43:28.224480","CLASSIFICATION_TYPE":"U","MEAN_MOTION":15.50986847,"ECCENTRICITY":0.00064826,"INCLINATION":97.3855,"RA_OF_ASC_NODE":276.1997,"ARG_OF_PERICENTER":80.0759,"MEAN_ANOMALY":280.1224,"EPHEMERIS_TYPE":0,"NORAD_CAT_ID":58322,"ELEMENT_SET_NO":999,"REV_AT_EPOCH":14853,"BSTAR":0.00050006536,"MEAN_MOTION_DOT":0.00029008,"MEAN_MOTION_DDOT":0},{"OBJECT_NAME":"FLOCK 4Q-4","OBJECT_ID":"2023-174BZ","EPOCH":"2026-07-06T04:51:49.052448","CLASSIFICATION_TYPE":"U","MEAN_MOTION":15.49563833,"ECCENTRICITY":0.00064535,"INCLINATION":97.3816,"RA_OF_ASC_NODE":275.3457,"ARG_OF_PERICENTER":99.8922,"MEAN_ANOMALY":260.3058,"EPHEMERIS_TYPE":0,"NORAD_CAT_ID":58327,"ELEMENT_SET_NO":999,"REV_AT_EPOCH":14850,"BSTAR":0.00046818358,"MEAN_MOTION_DOT":0.00025811,"MEAN_MOTION_DDOT":0},{"OBJECT_NAME":"FLOCK 4Q-13","OBJECT_ID":"2023-174CA","EPOCH":"2026-07-06T04:55:23.672640","CLASSIFICATION_TYPE":"U","MEAN_MOTION":15.52577545,"ECCENTRICITY":0.00065652,"INCLINATION":97.4002,"RA_OF_ASC_NODE":278.5877,"ARG_OF_PERICENTER":82.4576,"MEAN_ANOMALY":277.7422,"EPHEMERIS_TYPE":0,"NORAD_CAT_ID":58328,"ELEMENT_SET_NO":999,"REV_AT_EPOCH":14862,"BSTAR":0.00040867164,"MEAN_MOTION_DOT":0.00025063,"MEAN_MOTION_DDOT":0},{"OBJECT_NAME":"FLOCK 4BE-18","OBJECT_ID":"2024-149N","EPOCH":"2026-07-05T04:25:33.064608","CLASSIFICATION_TYPE":"U","MEAN_MOTION":15.42530557,"ECCENTRICITY":0.000415,"INCLINATION":97.3724,"RA_OF_ASC_NODE":270.1106,"ARG_OF_PERICENTER":177.8079,"MEAN_ANOMALY":182.3188,"EPHEMERIS_TYPE":0,"NORAD_CAT_ID":60480,"ELEMENT_SET_NO":999,"REV_AT_EPOCH":10508,"BSTAR":0.00083196,"MEAN_MOTION_DOT":0.00036138,"MEAN_MOTION_DDOT":0},{"OBJECT_NAME":"FLOCK 4BE-7","OBJECT_ID":"2024-149P","EPOCH":"2026-07-06T04:23:28.595040","CLASSIFICATION_TYPE":"U","MEAN_MOTION":15.41170213,"ECCENTRICITY":0.00036246,"INCLINATION":97.375,"RA_OF_ASC_NODE":270.4237,"ARG_OF_PERICENTER":173.3587,"MEAN_ANOMALY":186.7708,"EPHEMERIS_TYPE":0,"NORAD_CAT_ID":60481,"ELEMENT_SET_NO":999,"REV_AT_EPOCH":10517,"BSTAR":0.00060998151,"MEAN_MOTION_DOT":0.00025264,"MEAN_MOTION_DDOT":0},{"OBJECT_NAME":"FLOCK 4BE-36","OBJECT_ID":"2024-149U","EPOCH":"2026-07-06T04:24:15.376320","CLASSIFICATION_TYPE":"U","MEAN_MOTION":15.43334079,"ECCENTRICITY":0.00040622,"INCLINATION":97.3737,"RA_OF_ASC_NODE":271.8469,"ARG_OF_PERICENTER":177.8338,"MEAN_ANOMALY":182.2928,"EPHEMERIS_TYPE":0,"NORAD_CAT_ID":60486,"ELEMENT_SET_NO":999,"REV_AT_EPOCH":10528,"BSTAR":0.00040573327,"MEAN_MOTION_DOT":0.00018018,"MEAN_MOTION_DDOT":0},{"OBJECT_NAME":"FLOCK 4BE-25","OBJECT_ID":"2024-149V","EPOCH":"2026-07-06T04:51:46.860480","CLASSIFICATION_TYPE":"U","MEAN_MOTION":15.39369638,"ECCENTRICITY":0.00030718,"INCLINATION":97.3789,"RA_OF_ASC_NODE":270.4879,"ARG_OF_PERICENTER":162.737,"MEAN_ANOMALY":197.3981,"EPHEMERIS_TYPE":0,"NORAD_CAT_ID":60487,"ELEMENT_SET_NO":999,"REV_AT_EPOCH":10516,"BSTAR":0.00037743849,"MEAN_MOTION_DOT":0.0001468,"MEAN_MOTION_DDOT":0},{"OBJECT_NAME":"FLOCK 4BE-31","OBJECT_ID":"2024-149W","EPOCH":"2026-07-06T04:43:04.328832","CLASSIFICATION_TYPE":"U","MEAN_MOTION":15.44889414,"ECCENTRICITY":0.00030936,"INCLINATION":97.3791,"RA_OF_ASC_NODE":272.7741,"ARG_OF_PERICENTER":174.3451,"MEAN_ANOMALY":185.7833,"EPHEMERIS_TYPE":0,"NORAD_CAT_ID":60488,"ELEMENT_SET_NO":999,"REV_AT_EPOCH":10531,"BSTAR":0.00049287219,"MEAN_MOTION_DOT":0.00023101,"MEAN_MOTION_DDOT":0},{"OBJECT_NAME":"FLOCK 4BE-20","OBJECT_ID":"2024-149X","EPOCH":"2026-07-06T04:12:40.657248","CLASSIFICATION_TYPE":"U","MEAN_MOTION":15.38638181,"ECCENTRICITY":0.00042751,"INCLINATION":97.3688,"RA_OF_ASC_NODE":269.2915,"ARG_OF_PERICENTER":178.5288,"MEAN_ANOMALY":181.5971,"EPHEMERIS_TYPE":0,"NORAD_CAT_ID":60489,"ELEMENT_SET_NO":999,"REV_AT_EPOCH":10513,"BSTAR":0.00039865483,"MEAN_MOTION_DOT":0.00015147,"MEAN_MOTION_DDOT":0},{"OBJECT_NAME":"FLOCK 4BE-23","OBJECT_ID":"2024-149Y","EPOCH":"2026-07-06T04:05:53.499840","CLASSIFICATION_TYPE":"U","MEAN_MOTION":15.38197217,"ECCENTRICITY":0.00037905,"INCLINATION":97.3774,"RA_OF_ASC_NODE":269.6732,"ARG_OF_PERICENTER":181.9285,"MEAN_ANOMALY":178.1946,"EPHEMERIS_TYPE":0,"NORAD_CAT_ID":60490,"ELEMENT_SET_NO":999,"REV_AT_EPOCH":10511,"BSTAR":0.00040624737,"MEAN_MOTION_DOT":0.00015216,"MEAN_MOTION_DDOT":0}]}
